{
  "type": "FeatureCollection",
  "features": [
    {
      "type": "Feature",
      "properties": {
        "norad_id": 34022,
        "name": "COSMOS 2251 DEB",
        "group": "cosmos-2251-debris",
        "lat": -5.025089218157557,
        "lon": -87.26515082056427,
        "alt_km": 749.5968645678286,
        "timestamp": "2025-12-10T21:43:22.484566+00:00",
        "meta_object_name": "COSMOS 2251 DEB",
        "meta_object_id": "1993-036HH",
        "meta_epoch": "2025-12-10T14:13:40.269216",
        "meta_mean_motion": 14.38958379,
        "meta_eccentricity": 0.0022647,
        "meta_inclination": 74.0542,
        "meta_ra_of_asc_node": 274.7506,
        "meta_arg_of_pericenter": 340.0797,
        "meta_mean_anomaly": 197.6313,
        "meta_ephemeris_type": 0,
        "meta_classification_type": "U",
        "meta_norad_cat_id": 34022,
        "meta_element_set_no": 999,
        "meta_rev_at_epoch": 88164,
        "meta_bstar": 0.00040867108,
        "meta_mean_motion_dot": 1.238e-05,
        "meta_mean_motion_ddot": 0,
        "tle_line1": "1 34022U 93036HH  25344.59282719  .00001238  00000+0  40867-3 0  9994",
        "tle_line2": "2 34022  74.0542 274.7506 0022647 340.0797 197.6313 14.38958379881641"
      },
      "geometry": {
        "type": "Point",
        "coordinates": [
          -87.26515082056427,
          -5.025089218157557
        ]
      }
    },
    {
      "type": "Feature",
      "properties": {
        "norad_id": 34023,
        "name": "COSMOS 2251 DEB",
        "group": "cosmos-2251-debris",
        "lat": -72.77055049983032,
        "lon": 142.61250217841726,
        "alt_km": 763.0501872628711,
        "timestamp": "2025-12-10T21:43:22.484576+00:00",
        "meta_object_name": "COSMOS 2251 DEB",
        "meta_object_id": "1993-036HJ",
        "meta_epoch": "2025-12-10T12:59:18.295008",
        "meta_mean_motion": 14.40553769,
        "meta_eccentricity": 0.0018393,
        "meta_inclination": 74.0252,
        "meta_ra_of_asc_node": 255.8116,
        "meta_arg_of_pericenter": 351.8551,
        "meta_mean_anomaly": 185.2093,
        "meta_ephemeris_type": 0,
        "meta_classification_type": "U",
        "meta_norad_cat_id": 34023,
        "meta_element_set_no": 999,
        "meta_rev_at_epoch": 88182,
        "meta_bstar": 0.00055431597,
        "meta_mean_motion_dot": 1.743e-05,
        "meta_mean_motion_ddot": 0,
        "tle_line1": "1 34023U 93036HJ  25344.54118397  .00001743  00000+0  55432-3 0  9995",
        "tle_line2": "2 34023  74.0252 255.8116 0018393 351.8551 185.2093 14.40553769881823"
      },
      "geometry": {
        "type": "Point",
        "coordinates": [
          142.61250217841726,
          -72.77055049983032
        ]
      }
    },
    {
      "type": "Feature",
      "properties": {
        "norad_id": 34024,
        "name": "COSMOS 2251 DEB",
        "group": "cosmos-2251-debris",
        "lat": -50.211367227903175,
        "lon": -60.73235778375285,
        "alt_km": 773.6012862350053,
        "timestamp": "2025-12-10T21:43:22.484586+00:00",
        "meta_object_name": "COSMOS 2251 DEB",
        "meta_object_id": "1993-036HK",
        "meta_epoch": "2025-12-10T15:48:24.157152",
        "meta_mean_motion": 14.35392718,
        "meta_eccentricity": 0.00209369,
        "meta_inclination": 74.0463,
        "meta_ra_of_asc_node": 319.8079,
        "meta_arg_of_pericenter": 11.039,
        "meta_mean_anomaly": 102.8948,
        "meta_ephemeris_type": 0,
        "meta_classification_type": "U",
        "meta_norad_cat_id": 34024,
        "meta_element_set_no": 999,
        "meta_rev_at_epoch": 87994,
        "meta_bstar": 0.00032470655,
        "meta_mean_motion_dot": 9.08e-06,
        "meta_mean_motion_ddot": 0,
        "tle_line1": "1 34024U 93036HK  25344.65861293  .00000908  00000+0  32471-3 0  9998",
        "tle_line2": "2 34024  74.0463 319.8079 0020936  11.0390 102.8948 14.35392718879942"
      },
      "geometry": {
        "type": "Point",
        "coordinates": [
          -60.73235778375285,
          -50.211367227903175
        ]
      }
    },
    {
      "type": "Feature",
      "properties": {
        "norad_id": 34026,
        "name": "COSMOS 2251 DEB",
        "group": "cosmos-2251-debris",
        "lat": -56.12082386292707,
        "lon": -45.37537060489032,
        "alt_km": 1012.1685352603281,
        "timestamp": "2025-12-10T21:43:22.484596+00:00",
        "meta_object_name": "COSMOS 2251 DEB",
        "meta_object_id": "1993-036HM",
        "meta_epoch": "2025-12-10T10:20:56.036832",
        "meta_mean_motion": 13.65303508,
        "meta_eccentricity": 0.03507436,
        "meta_inclination": 73.7681,
        "meta_ra_of_asc_node": 341.1245,
        "meta_arg_of_pericenter": 211.4861,
        "meta_mean_anomaly": 276.2185,
        "meta_ephemeris_type": 0,
        "meta_classification_type": "U",
        "meta_norad_cat_id": 34026,
        "meta_element_set_no": 999,
        "meta_rev_at_epoch": 83500,
        "meta_bstar": 0.0011634654,
        "meta_mean_motion_dot": 1.416e-05,
        "meta_mean_motion_ddot": 0,
        "tle_line1": "1 34026U 93036HM  25344.43120413  .00001416  00000+0  11635-2 0  9991",
        "tle_line2": "2 34026  73.7681 341.1245 0350743 211.4861 276.2185 13.65303508835005"
      },
      "geometry": {
        "type": "Point",
        "coordinates": [
          -45.37537060489032,
          -56.12082386292707
        ]
      }
    },
    {
      "type": "Feature",
      "properties": {
        "norad_id": 34028,
        "name": "COSMOS 2251 DEB",
        "group": "cosmos-2251-debris",
        "lat": -66.37057231047096,
        "lon": -148.57257832098887,
        "alt_km": 1404.7878240841683,
        "timestamp": "2025-12-10T21:43:22.484607+00:00",
        "meta_object_name": "COSMOS 2251 DEB",
        "meta_object_id": "1993-036HP",
        "meta_epoch": "2025-12-10T12:12:00.780768",
        "meta_mean_motion": 13.20620439,
        "meta_eccentricity": 0.05437774,
        "meta_inclination": 73.8833,
        "meta_ra_of_asc_node": 350.6714,
        "meta_arg_of_pericenter": 128.8985,
        "meta_mean_anomaly": 32.5831,
        "meta_ephemeris_type": 0,
        "meta_classification_type": "U",
        "meta_norad_cat_id": 34028,
        "meta_element_set_no": 999,
        "meta_rev_at_epoch": 80978,
        "meta_bstar": 0.00048738564,
        "meta_mean_motion_dot": 4.14e-06,
        "meta_mean_motion_ddot": 0,
        "tle_line1": "1 34028U 93036HP  25344.50834237  .00000414  00000+0  48739-3 0  9990",
        "tle_line2": "2 34028  73.8833 350.6714 0543777 128.8985  32.5831 13.20620439809785"
      },
      "geometry": {
        "type": "Point",
        "coordinates": [
          -148.57257832098887,
          -66.37057231047096
        ]
      }
    },
    {
      "type": "Feature",
      "properties": {
        "norad_id": 34031,
        "name": "COSMOS 2251 DEB",
        "group": "cosmos-2251-debris",
        "lat": -24.833802016214946,
        "lon": 131.58776924717756,
        "alt_km": 695.212795505915,
        "timestamp": "2025-12-10T21:43:22.484617+00:00",
        "meta_object_name": "COSMOS 2251 DEB",
        "meta_object_id": "1993-036HS",
        "meta_epoch": "2025-12-10T12:14:01.679424",
        "meta_mean_motion": 14.59640746,
        "meta_eccentricity": 0.00229892,
        "meta_inclination": 74.0128,
        "meta_ra_of_asc_node": 139.9668,
        "meta_arg_of_pericenter": 260.3651,
        "meta_mean_anomaly": 156.8264,
        "meta_ephemeris_type": 0,
        "meta_classification_type": "U",
        "meta_norad_cat_id": 34031,
        "meta_element_set_no": 999,
        "meta_rev_at_epoch": 88533,
        "meta_bstar": 0.0020476222,
        "meta_mean_motion_dot": 9.77e-05,
        "meta_mean_motion_ddot": 0,
        "tle_line1": "1 34031U 93036HS  25344.50974166  .00009770  00000+0  20476-2 0  9991",
        "tle_line2": "2 34031  74.0128 139.9668 0022989 260.3651 156.8264 14.59640746885335"
      },
      "geometry": {
        "type": "Point",
        "coordinates": [
          131.58776924717756,
          -24.833802016214946
        ]
      }
    },
    {
      "type": "Feature",
      "properties": {
        "norad_id": 34035,
        "name": "COSMOS 2251 DEB",
        "group": "cosmos-2251-debris",
        "lat": -7.8205223620029045,
        "lon": 174.83846086484172,
        "alt_km": 753.7464383704792,
        "timestamp": "2025-12-10T21:43:22.484627+00:00",
        "meta_object_name": "COSMOS 2251 DEB",
        "meta_object_id": "1993-036HW",
        "meta_epoch": "2025-12-10T04:54:43.628832",
        "meta_mean_motion": 14.51887587,
        "meta_eccentricity": 0.0044513,
        "meta_inclination": 74.0661,
        "meta_ra_of_asc_node": 353.9061,
        "meta_arg_of_pericenter": 355.9554,
        "meta_mean_anomaly": 132.5569,
        "meta_ephemeris_type": 0,
        "meta_classification_type": "U",
        "meta_norad_cat_id": 34035,
        "meta_element_set_no": 999,
        "meta_rev_at_epoch": 87929,
        "meta_bstar": 0.0023461,
        "meta_mean_motion_dot": 9.563e-05,
        "meta_mean_motion_ddot": 0,
        "tle_line1": "1 34035U 93036HW  25344.20467163  .00009563  00000+0  23461-2 0  9993",
        "tle_line2": "2 34035  74.0661 353.9061 0044513 355.9554 132.5569 14.51887587879291"
      },
      "geometry": {
        "type": "Point",
        "coordinates": [
          174.83846086484172,
          -7.8205223620029045
        ]
      }
    }
  ]
}